{
    "links": {
        "self": "http://www.neowsapp.com/rest/v1/neo/54076021?api_key=iIulBulltgU6a56xZRHN4H3l9WmuAYTsLGpBGhQ2"
    },
    "id": "54076021",
    "neo_reference_id": "54076021",
    "name": "(2020 UN4)",
    "designation": "2020 UN4",
    "nasa_jpl_url": "http://ssd.jpl.nasa.gov/sbdb.cgi?sstr=54076021",
    "absolute_magnitude_h": 27.988,
    "estimated_diameter": {
        "kilometers": {
            "estimated_diameter_min": 0.0067135925,
            "estimated_diameter_max": 0.0150120492
        },
        "meters": {
            "estimated_diameter_min": 6.7135924937,
            "estimated_diameter_max": 15.0120491892
        },
        "miles": {
            "estimated_diameter_min": 0.0041716317,
            "estimated_diameter_max": 0.009328052
        },
        "feet": {
            "estimated_diameter_min": 22.0262227972,
            "estimated_diameter_max": 49.252131462
        }
    },
    "is_potentially_hazardous_asteroid": false,
    "close_approach_data": [
        {
            "close_approach_date": "1953-07-13",
            "close_approach_date_full": "1953-Jul-13 12:40",
            "epoch_date_close_approach": -519736800000,
            "relative_velocity": {
                "kilometers_per_second": "18.8523526677",
                "kilometers_per_hour": "67868.4696038539",
                "miles_per_hour": "42170.8276824613"
            },
            "miss_distance": {
                "astronomical": "0.3347973753",
                "lunar": "130.2361789917",
                "kilometers": "50084974.226470611",
                "miles": "31121359.8676959918"
            },
            "orbiting_body": "Earth"
        },
        {
            "close_approach_date": "1958-11-21",
            "close_approach_date_full": "1958-Nov-21 14:08",
            "epoch_date_close_approach": -350646720000,
            "relative_velocity": {
                "kilometers_per_second": "20.9121293551",
                "kilometers_per_hour": "75283.665678216",
                "miles_per_hour": "46778.3421543337"
            },
            "miss_distance": {
                "astronomical": "0.3965586797",
                "lunar": "154.2613264033",
                "kilometers": "59324333.813132239",
                "miles": "36862431.6978093382"
            },
            "orbiting_body": "Earth"
        },
        {
            "close_approach_date": "1959-02-12",
            "close_approach_date_full": "1959-Feb-12 04:18",
            "epoch_date_close_approach": -343510920000,
            "relative_velocity": {
                "kilometers_per_second": "10.8358867632",
                "kilometers_per_hour": "39009.1923475538",
                "miles_per_hour": "24238.7951006231"
            },
            "miss_distance": {
                "astronomical": "0.0997459603",
                "lunar": "38.8011785567",
                "kilometers": "14921783.201984561",
                "miles": "9271966.1349305018"
            },
            "orbiting_body": "Mars"
        },
        {
            "close_approach_date": "2020-10-21",
            "close_approach_date_full": "2020-Oct-21 13:25",
            "epoch_date_close_approach": 1603286700000,
            "relative_velocity": {
                "kilometers_per_second": "9.1385057677",
                "kilometers_per_hour": "32898.6207638844",
                "miles_per_hour": "20441.9235518703"
            },
            "miss_distance": {
                "astronomical": "0.0118017834",
                "lunar": "4.5908937426",
                "kilometers": "1765521.658841358",
                "miles": "1097044.2881844204"
            },
            "orbiting_body": "Earth"
        }
    ],
    "orbital_data": {
        "orbit_id": "1",
        "orbit_determination_date": "2020-10-23 20:42:13",
        "first_observation_date": "2020-10-23",
        "last_observation_date": "2020-10-24",
        "data_arc_in_days": 1,
        "observations_used": 29,
        "orbit_uncertainty": "7",
        "minimum_orbit_intersection": ".00541376",
        "jupiter_tisserand_invariant": "3.812",
        "epoch_osculation": "2459000.5",
        "eccentricity": ".492679718763514",
        "semi_major_axis": "1.880918401989367",
        "inclination": "2.131116361667061",
        "ascending_node_longitude": "214.073079694228",
        "orbital_period": "942.2222594154113",
        "perihelion_distance": ".9542280526801278",
        "perihelion_argument": "142.446558659773",
        "aphelion_distance": "2.807608751298607",
        "perihelion_time": "2459118.995050560668",
        "mean_anomaly": "314.7259494502845",
        "mean_motion": ".3820754566161035",
        "equinox": "J2000",
        "orbit_class": {
            "orbit_class_type": "APO",
            "orbit_class_description": "Near-Earth asteroid orbits which cross the Earth’s orbit similar to that of 1862 Apollo",
            "orbit_class_range": "a (semi-major axis) > 1.0 AU; q (perihelion) < 1.017 AU"
        }
    },
    "is_sentry_object": false
}